{"type": "FeatureCollection", "features": [ {"type": "Feature", "properties": {"norad_id": 30396, "name": "FENGYUN 1C DEB", "group": "fengyun-1c-debris", "lat": 42.90117105897538, "lon": -177.34910697612267, "alt_km": 840.44176818089, "timestamp": "2025-12-16T13:52:37.799476+00:00", "meta": {"OBJECT_NAME": "FENGYUN 1C DEB", "OBJECT_ID": "1999-025ADK", "EPOCH": "2025-12-15T19:02:22.414272", "MEAN_MOTION": 13.87169566, "ECCENTRICITY": 0.01351161, "INCLINATION": 98.224, "RA_OF_ASC_NODE": 354.2362, "ARG_OF_PERICENTER": 121.3339, "MEAN_ANOMALY": 57.2012, "EPHEMERIS_TYPE": 0, "CLASSIFICATION_TYPE": "U", "NORAD_CAT_ID": 30396, "ELEMENT_SET_NO": 999, "REV_AT_EPOCH": 95621, "BSTAR": 0.00012773127, "MEAN_MOTION_DOT": 1.26e-06, "MEAN_MOTION_DDOT": 0}, "tle": {"line1": "1 30396U 99025ADK 25349.79331498  .00000126  00000+0  12773-3 0  9994", "line2": "2 30396  98.2240 354.2362 0135116 121.3339  57.2012 13.87169566956214"}}, "geometry": {"type": "Point", "coordinates": [-177.34910697612267, 42.90117105897538]}}, {"type": "Feature", "properties": {"norad_id": 30397, "name": "FENGYUN 1C DEB", "group": "fengyun-1c-debris", "lat": -1.3071680883719523, "lon": -41.72815441352203, "alt_km": 917.8703096065683, "timestamp": "2025-12-16T13:52:37.799486+00:00", "meta": {"OBJECT_NAME": "FENGYUN 1C DEB", "OBJECT_ID": "1999-025ADL", "EPOCH": "2025-12-15T22:08:49.918272", "MEAN_MOTION": 13.98597974, "ECCENTRICITY": 0.01496353, "INCLINATION": 98.4046, "RA_OF_ASC_NODE": 137.864, "ARG_OF_PERICENTER": 83.6641, "MEAN_ANOMALY": 37.6979, "EPHEMERIS_TYPE": 0, "CLASSIFICATION_TYPE": "U", "NORAD_CAT_ID": 30397, "ELEMENT_SET_NO": 999, "REV_AT_EPOCH": 95809, "BSTAR": 0.00081372742, "MEAN_MOTION_DOT": 1.247e-05, "MEAN_MOTION_DDOT": 0}, "tle": {"line1": "1 30397U 99025ADL 25349.92279998  .00001247  00000+0  81373-3 0  9993", "line2": "2 30397  98.4046 137.8640 0149635  83.6641  37.6979 13.98597974958094"}}, "geometry": {"type": "Point", "coordinates": [-41.72815441352203, -1.3071680883719523]}}, {"type": "Feature", "properties": {"norad_id": 30398, "name": "FENGYUN 1C DEB", "group": "fengyun-1c-debris", "lat": -36.362827286950576, "lon": -105.55965343567256, "alt_km": 872.6673719175906, "timestamp": "2025-12-16T13:52:37.799496+00:00", "meta": {"OBJECT_NAME": "FENGYUN 1C DEB", "OBJECT_ID": "1999-025ADM", "EPOCH": "2025-12-15T07:19:42.208896", "MEAN_MOTION": 13.78700693, "ECCENTRICITY": 0.01727031, "INCLINATION": 99.7141, "RA_OF_ASC_NODE": 245.8915, "ARG_OF_PERICENTER": 289.3628, "MEAN_ANOMALY": 198.2467, "EPHEMERIS_TYPE": 0, "CLASSIFICATION_TYPE": "U", "NORAD_CAT_ID": 30398, "ELEMENT_SET_NO": 999, "REV_AT_EPOCH": 94792, "BSTAR": 0.0004919872, "MEAN_MOTION_DOT": 5.1e-06, "MEAN_MOTION_DDOT": 0}, "tle": {"line1": "1 30398U 99025ADM 25349.30534964  .00000510  00000+0  49199-3 0  9995", "line2": "2 30398  99.7141 245.8915 0172703 289.3628 198.2467 13.78700693947920"}}, "geometry": {"type": "Point", "coordinates": [-105.55965343567256, -36.362827286950576]}}, {"type": "Feature", "properties": {"norad_id": 30400, "name": "FENGYUN 1C DEB", "group": "fengyun-1c-debris", "lat": -36.10031906680365, "lon": 91.41721529110409, "alt_km": 914.5988876220081, "timestamp": "2025-12-16T13:52:37.799508+00:00", "meta": {"OBJECT_NAME": "FENGYUN 1C DEB", "OBJECT_ID": "1999-025ADP", "EPOCH": "2025-12-15T18:21:04.456224", "MEAN_MOTION": 14.10031173, "ECCENTRICITY": 0.02268833, "INCLINATION": 99.1561, "RA_OF_ASC_NODE": 277.3429, "ARG_OF_PERICENTER": 327.4605, "MEAN_ANOMALY": 83.9962, "EPHEMERIS_TYPE": 0, "CLASSIFICATION_TYPE": "U", "NORAD_CAT_ID": 30400, "ELEMENT_SET_NO": 999, "REV_AT_EPOCH": 95557, "BSTAR": 0.0026743018, "MEAN_MOTION_DOT": 5.953e-05, "MEAN_MOTION_DDOT": 0}, "tle": {"line1": "1 30400U 99025ADP 25349.76463491  .00005953  00000+0  26743-2 0  9990", "line2": "2 30400  99.1561 277.3429 0226883 327.4605  83.9962 14.10031173955579"}}, "geometry": {"type": "Point", "coordinates": [91.41721529110409, -36.10031906680365]}}, {"type": "Feature", "properties": {"norad_id": 30401, "name": "FENGYUN 1C DEB", "group": "fengyun-1c-debris", "lat": 49.22798671806874, "lon": 58.088317894895866, "alt_km": 718.512895885111, "timestamp": "2025-12-16T13:52:37.799519+00:00", "meta": {"OBJECT_NAME": "FENGYUN 1C DEB", "OBJECT_ID": "1999-025ADQ", "EPOCH": "2025-12-15T22:08:34.239264", "MEAN_MOTION": 14.27993817, "ECCENTRICITY": 0.01079777, "INCLINATION": 98.9471, "RA_OF_ASC_NODE": 226.8903, "ARG_OF_PERICENTER": 118.3251, "MEAN_ANOMALY": 242.8871, "EPHEMERIS_TYPE": 0, "CLASSIFICATION_TYPE": "U", "NORAD_CAT_ID": 30401, "ELEMENT_SET_NO": 999, "REV_AT_EPOCH": 98349, "BSTAR": 0.00013307081, "MEAN_MOTION_DOT": 3.06e-06, "MEAN_MOTION_DDOT": 0}, "tle": {"line1": "1 30401U 99025ADQ 25349.92261851  .00000306  00000+0  13307-3 0  9995", "line2": "2 30401  98.9471 226.8903 0107977 118.3251 242.8871 14.27993817983496"}}, "geometry": {"type": "Point", "coordinates": [58.088317894895866, 49.22798671806874]}}, {"type": "Feature", "properties": {"norad_id": 30403, "name": "FENGYUN 1C DEB", "group": "fengyun-1c-debris", "lat": -31.00536274793473, "lon": -116.39874902304042, "alt_km": 876.5363241695459, "timestamp": "2025-12-16T13:52:37.799529+00:00", "meta": {"OBJECT_NAME": "FENGYUN 1C DEB", "OBJECT_ID": "1999-025ADS", "EPOCH": "2025-12-15T04:47:25.490976", "MEAN_MOTION": 14.21554864, "ECCENTRICITY": 0.00745248, "INCLINATION": 99.06, "RA_OF_ASC_NODE": 67.6895, "ARG_OF_PERICENTER": 15.7382, "MEAN_ANOMALY": 344.6086, "EPHEMERIS_TYPE": 0, "CLASSIFICATION_TYPE": "U", "NORAD_CAT_ID": 30403, "ELEMENT_SET_NO": 999, "REV_AT_EPOCH": 96841, "BSTAR": 0.0014075094, "MEAN_MOTION_DOT": 3.126e-05, "MEAN_MOTION_DDOT": 0}, "tle": {"line1": "1 30403U 99025ADS 25349.19960059  .00003126  00000+0  14075-2 0  9997", "line2": "2 30403  99.0600  67.6895 0074524  15.7382 344.6086 14.21554864968414"}}, "geometry": {"type": "Point", "coordinates": [-116.39874902304042, -31.00536274793473]}}, {"type": "Feature", "properties": {"norad_id": 30404, "name": "FENGYUN 1C DEB", "group": "fengyun-1c-debris", "lat": 24.30210837632398, "lon": -93.29430827212833, "alt_km": 877.3404137245379, "timestamp": "2025-12-16T13:52:37.799543+00:00", "meta": {"OBJECT_NAME": "FENGYUN 1C DEB", "OBJECT_ID": "1999-025ADT", "EPOCH": "2025-12-14T23:20:16.316448", "MEAN_MOTION": 13.34349153, "ECCENTRICITY": 0.03755809, "INCLINATION": 99.8365, "RA_OF_ASC_NODE": 80.6661, "ARG_OF_PERICENTER": 131.5172, "MEAN_ANOMALY": 231.8826, "EPHEMERIS_TYPE": 0, "CLASSIFICATION_TYPE": "U", "NORAD_CAT_ID": 30404, "ELEMENT_SET_NO": 999, "REV_AT_EPOCH": 58066, "BSTAR": 0.00088806323, "MEAN_MOTION_DOT": 6.2e-06, "MEAN_MOTION_DDOT": 0}, "tle": {"line1": "1 30404U 99025ADT 25348.97241107  .00000620  00000+0  88806-3 0  9999", "line2": "2 30404  99.8365  80.6661 0375580 131.5172 231.8826 13.34349153580669"}}, "geometry": {"type": "Point", "coordinates": [-93.29430827212833, 24.30210837632398]}}, {"type": "Feature", "properties": {"norad_id": 30405, "name": "FENGYUN 1C DEB", "group": "fengyun-1c-debris", "lat": 48.65615176938389, "lon": -85.27182443461176, "alt_km": 754.8423545697078, "timestamp": "2025-12-16T13:52:37.799553+00:00", "meta": {"OBJECT_NAME": "FENGYUN 1C DEB", "OBJECT_ID": "1999-025ADU", "EPOCH": "2025-12-15T01:07:16.008384", "MEAN_MOTION": 14.28940276, "ECCENTRICITY": 0.0051324, "INCLINATION": 98.7938, "RA_OF_ASC_NODE": 83.0514, "ARG_OF_PERICENTER": 147.2809, "MEAN_ANOMALY": 29.4439, "EPHEMERIS_TYPE": 0, "CLASSIFICATION_TYPE": "U", "NORAD_CAT_ID": 30405, "ELEMENT_SET_NO": 999, "REV_AT_EPOCH": 97428, "BSTAR": 0.0012157429, "MEAN_MOTION_DOT": 3.072e-05, "MEAN_MOTION_DDOT": 0}, "tle": {"line1": "1 30405U 99025ADU 25349.04671306  .00003072  00000+0  12157-2 0  9996", "line2": "2 30405  98.7938  83.0514 0051324 147.2809  29.4439 14.28940276974289"}}, "geometry": {"type": "Point", "coordinates": [-85.27182443461176, 48.65615176938389]}}, {"type": "Feature", "properties": {"norad_id": 30406, "name": "FENGYUN 1C DEB", "group": "fengyun-1c-debris", "lat": -28.09936418095063, "lon": 56.14036268732317, "alt_km": 1206.3551605339953, "timestamp": "2025-12-16T13:52:37.799563+00:00", "meta": {"OBJECT_NAME": "FENGYUN 1C DEB", "OBJECT_ID": "1999-025ADV", "EPOCH": "2025-12-15T22:48:17.650656", "MEAN_MOTION": 13.59226166, "ECCENTRICITY": 0.02831728, "INCLINATION": 98.6207, "RA_OF_ASC_NODE": 240.2329, "ARG_OF_PERICENTER": 351.5367, "MEAN_ANOMALY": 27.5065, "EPHEMERIS_TYPE": 0, "CLASSIFICATION_TYPE": "U", "NORAD_CAT_ID": 30406, "ELEMENT_SET_NO": 999, "REV_AT_EPOCH": 93210, "BSTAR": 0.0018629403, "MEAN_MOTION_DOT": 1.749e-05, "MEAN_MOTION_DDOT": 0}, "tle": {"line1": "1 30406U 99025ADV 25349.95020429  .00001749  00000+0  18629-2 0  9990", "line2": "2 30406  98.6207 240.2329 0283172 351.5367  27.5065 13.59226166932103"}}, "geometry": {"type": "Point", "coordinates": [56.14036268732317, -28.09936418095063]}}, {"type": "Feature", "properties": {"norad_id": 30409, "name": "FENGYUN 1C DEB", "group": "fengyun-1c-debris", "lat": -25.388318761708675, "lon": 153.64845328437912, "alt_km": 990.3778470143934, "timestamp": "2025-12-16T13:52:37.799573+00:00", "meta": {"OBJECT_NAME": "FENGYUN 1C DEB", "OBJECT_ID": "1999-025ADY", "EPOCH": "2025-12-15T12:01:03.135936", "MEAN_MOTION": 14.03743773, "ECCENTRICITY": 0.01676963, "INCLINATION": 98.473, "RA_OF_ASC_NODE": 336.7002, "ARG_OF_PERICENTER": 357.7704, "MEAN_ANOMALY": 166.7991, "EPHEMERIS_TYPE": 0, "CLASSIFICATION_TYPE": "U", "NORAD_CAT_ID": 30409, "ELEMENT_SET_NO": 999, "REV_AT_EPOCH": 96468, "BSTAR": 0.0009014494, "MEAN_MOTION_DOT": 1.567e-05, "MEAN_MOTION_DDOT": 0}, "tle": {"line1": "1 30409U 99025ADY 25349.50073074  .00001567  00000+0  90145-3 0  9990", "line2": "2 30409  98.4730 336.7002 0167696 357.7704 166.7991 14.03743773964689"}}, "geometry": {"type": "Point", "coordinates": [153.64845328437912, -25.388318761708675]}}]}